STARLINK-5890           
1 57265U 23094AZ  24226.78699019 -.00002901  00000+0 -19975-3 0  9995
2 57265  43.0010 250.0495 0001329 280.6074  79.4619 15.02532422 61090
HULIANWANG JISHU SHIYAN*
1 57288U 23095A   24226.83521158 -.00000032  00000+0 -87658-4 0  9992
2 57288  86.4980 237.3771 0015844 262.1495  97.7849 13.39481905 53744
HULIANWANG JISHU SHIYAN*
1 57289U 23095B   24226.82791707 -.00000026  00000+0 -76179-4 0  9990
2 57289  86.4982 237.3796 0014367 260.2908  99.6612 13.39482689 53740
STARLINK-30198          
1 57290U 23096A   24226.98765113 -.00003622  00000+0 -25333-3 0  9992
2 57290  43.0035  95.4502 0001067 265.0817  94.9904 15.02519400 60365
STARLINK-30239          
1 57291U 23096B   24226.98431649  .00007168  00000+0  54531-3 0  9996
2 57291  43.0018  95.4266 0002179 273.7542  86.3052 15.02526189 60361
STARLINK-30210          
1 57292U 23096C   24226.98099594 -.00016477  00000+0 -12091-2 0  9995
2 57292  43.0012  95.4001 0001342 290.8654  69.2044 15.02486946 60387
STARLINK-30202          
1 57293U 23096D   24227.25001157  .00592392  00000+0  94772-2 0  9994
2 57293  42.9945  30.9193 0038821 296.2755  27.9485 15.49516680 61304
STARLINK-30235          
1 57294U 23096E   24226.70842043 -.00011572  00000+0 -84372-3 0  9995
2 57294  42.9976  96.7960 0000899 274.5859  85.4881 15.02503516 61424
STARLINK-30206          
1 57295U 23096F   24226.99098172 -.00003611  00000+0 -25255-3 0  9993
2 57295  43.0028  95.4426 0000992 276.1794  83.8935 15.02515863 60371
STARLINK-30238          
1 57296U 23096G   24226.90453904 -.00000936  00000+0 -54266-4 0  9995
2 57296  43.0008  95.6825 0001033 276.2276  83.8449 15.02501772 61474
STARLINK-30234          
1 57297U 23096H   24226.90120145 -.00004130  00000+0 -29106-3 0  9998
2 57297  42.9989  95.6638 0000639 260.5169  99.5602 15.02511292 61452
STARLINK-30241          
1 57298U 23096J   24227.00750146 -.00004233  00000+0 -29862-3 0  9994
2 57298  43.0037  94.7253 0001183 274.5217  85.5490 15.02519887 60385
STARLINK-30199          
1 57299U 23096K   24226.69844175 -.00002266  00000+0 -15286-3 0  9994
2 57299  43.0002  96.7221 0000862 289.8704  70.2045 15.02513857 61422
STARLINK-30236          
1 57300U 23096L   24226.69510676 -.00003892  00000+0 -27341-3 0  9994
2 57300  42.9991  96.6943 0000871 273.7470  86.3273 15.02508166 61464
STARLINK-30201          
1 57301U 23096M   24226.69177959 -.00001751  00000+0 -11462-3 0  9997
2 57301  43.0053  96.6692 0000569 322.7210  37.3593 15.02518893 60523
STARLINK-30233          
1 57302U 23096N   24226.95434827 -.00012598  00000+0 -92010-3 0  9996
2 57302  43.0011  95.1759 0001733 273.8254  86.2390 15.02498914 60567
STARLINK-30232          
1 57303U 23096P   24227.01749972 -.00009170  00000+0 -66507-3 0  9999
2 57303  43.0015  94.8278 0000795 284.5300  75.5455 15.02511049 60380
STARLINK-30211          
1 57304U 23096Q   24226.94768646 -.00001780  00000+0 -11676-3 0  9996
2 57304  43.0026  95.1418 0002080 256.1187 103.9424 15.02523553 60374
STARLINK-30177          
1 57305U 23096R   24227.01085272 -.00002225  00000+0 -14977-3 0  9995
2 57305  43.0043  94.7603 0001206 286.5800  73.4910 15.02519054 60375
STARLINK-30200          
1 57306U 23096S   24227.01528235 -.00005544  00000+0 -39623-3 0  9999
2 57306  43.0020  94.7908 0001468 297.0591  63.0101 15.02480610 60386
STARLINK-30209          
1 57307U 23096T   24227.00419408 -.00002729  00000+0 -18715-3 0  9991
2 57307  42.9986  94.7053 0000717 277.7613  82.3147 15.02515331 60386
STARLINK-30194          
1 57308U 23096U   24227.00086632 -.00004746  00000+0 -33673-3 0  9992
2 57308  43.0017  94.6892 0001184 295.4798  64.5922 15.02512449 60373
STARLINK-30163          
1 57309U 23096V   24227.06399228 -.00024308  00000+0 -17929-2 0  9998
2 57309  43.0016  94.3017 0001760 278.3032  81.7611 15.02487019 60549
STARLINK-30184          
1 57310U 23096W   24226.87839773 -.00019369  00000+0 -14238-2 0  9993
2 57310  43.0015  69.6284 0000902 252.6396 107.4348 15.02506853 60851
STARLINK-30175          
1 57311U 23096X   24226.99419532 -.00007022  00000+0 -50561-3 0  9997
2 57311  43.0005  94.6349 0000872 282.9494  77.1251 15.02510418 60489
STARLINK-6290           
1 57328U 23099A   24227.05579419 -.00002388  00000+0 -16185-3 0  9991
2 57328  43.0040 120.8476 0001592 270.9403  89.1257 15.02521758 60710
STARLINK-6138           
1 57329U 23099B   24227.04581250 -.00012192  00000+0 -88995-3 0  9999
2 57329  43.0000 120.7697 0000966 295.4792  64.5950 15.02496868 60718
STARLINK-6212           
1 57330U 23099C   24226.72009585  .00017936  00000+0  13416-2 0  9995
2 57330  43.0005 122.6314 0000380 298.7295  61.3509 15.02474797 59929
STARLINK-6234           
1 57331U 23099D   24227.11786126  .00030823  00000+0  22878-2 0  9995
2 57331  43.0020 120.4537 0001398 281.7818  78.2868 15.02519362 60467
STARLINK-5831           
1 57332U 23099E   24227.11562798 -.00008673  00000+0 -62841-3 0  9998
2 57332  43.0003 120.4368 0000760 275.6151  84.4605 15.02498477 60725
