OBJECT_NAME,OBJECT_ID,EPOCH,MEAN_MOTION,ECCENTRICITY,INCLINATION,RA_OF_ASC_NODE,ARG_OF_PERICENTER,MEAN_ANOMALY,EPHEMERIS_TYPE,CLASSIFICATION_TYPE,NORAD_CAT_ID,ELEMENT_SET_NO,REV_AT_EPOCH,BSTAR,MEAN_MOTION_DOT,MEAN_MOTION_DDOT
STARLINK-5890,2023-094AZ,2024-08-13T18:53:15.952416,15.02532422,.0001329,43.0010,250.0495,280.6074,79.4619,0,U,57265,999,6109,-.19975E-3,-.2901E-4,0
HULIANWANG JISHU SHIYAN A,2023-095A,2024-08-13T20:02:42.280512,13.39481905,.0015844,86.4980,237.3771,262.1495,97.7849,0,U,57288,999,5374,-.87658E-4,-.32E-6,0
HULIANWANG JISHU SHIYAN B,2023-095B,2024-08-13T19:52:12.034848,13.39482689,.0014367,86.4982,237.3796,260.2908,99.6612,0,U,57289,999,5374,-.76179E-4,-.26E-6,0
STARLINK-30198,2023-096A,2024-08-13T23:42:13.057632,15.02519400,.0001067,43.0035,95.4502,265.0817,94.9904,0,U,57290,999,6036,-.25333E-3,-.3622E-4,0
STARLINK-30239,2023-096B,2024-08-13T23:37:24.944736,15.02526189,.0002179,43.0018,95.4266,273.7542,86.3052,0,U,57291,999,6036,.54531E-3,.7168E-4,0
STARLINK-30210,2023-096C,2024-08-13T23:32:38.049216,15.02486946,.0001342,43.0012,95.4001,290.8654,69.2044,0,U,57292,999,6038,-.12091E-2,-.16477E-3,0
STARLINK-30202,2023-096D,2024-08-14T06:00:00.999648,15.49516680,.0038821,42.9945,30.9193,296.2755,27.9485,0,U,57293,999,6130,.94772E-2,.592392E-2,0
STARLINK-30235,2023-096E,2024-08-13T17:00:07.525152,15.02503516,.0000899,42.9976,96.7960,274.5859,85.4881,0,U,57294,999,6142,-.84372E-3,-.11572E-3,0
STARLINK-30206,2023-096F,2024-08-13T23:47:00.820608,15.02515863,.0000992,43.0028,95.4426,276.1794,83.8935,0,U,57295,999,6037,-.25255E-3,-.3611E-4,0
STARLINK-30238,2023-096G,2024-08-13T21:42:32.173056,15.02501772,.0001033,43.0008,95.6825,276.2276,83.8449,0,U,57296,999,6147,-.54266E-4,-.936E-5,0
STARLINK-30234,2023-096H,2024-08-13T21:37:43.805280,15.02511292,.0000639,42.9989,95.6638,260.5169,99.5602,0,U,57297,999,6145,-.29106E-3,-.413E-4,0
STARLINK-30241,2023-096J,2024-08-14T00:10:48.126144,15.02519887,.0001183,43.0037,94.7253,274.5217,85.5490,0,U,57298,999,6038,-.29862E-3,-.4233E-4,0
STARLINK-30199,2023-096K,2024-08-13T16:45:45.367200,15.02513857,.0000862,43.0002,96.7221,289.8704,70.2045,0,U,57299,999,6142,-.15286E-3,-.2266E-4,0
STARLINK-30236,2023-096L,2024-08-13T16:40:57.224064,15.02508166,.0000871,42.9991,96.6943,273.7470,86.3273,0,U,57300,999,6146,-.27341E-3,-.3892E-4,0
STARLINK-30201,2023-096M,2024-08-13T16:36:09.756576,15.02518893,.0000569,43.0053,96.6692,322.7210,37.3593,0,U,57301,999,6052,-.11462E-3,-.1751E-4,0
STARLINK-30233,2023-096N,2024-08-13T22:54:15.690528,15.02498914,.0001733,43.0011,95.1759,273.8254,86.2390,0,U,57302,999,6056,-.9201E-3,-.12598E-3,0
STARLINK-30232,2023-096P,2024-08-14T00:25:11.975808,15.02511049,.0000795,43.0015,94.8278,284.5300,75.5455,0,U,57303,999,6038,-.66507E-3,-.917E-4,0
STARLINK-30211,2023-096Q,2024-08-13T22:44:40.110144,15.02523553,.000208,43.0026,95.1418,256.1187,103.9424,0,U,57304,999,6037,-.11676E-3,-.178E-4,0
STARLINK-30177,2023-096R,2024-08-14T00:15:37.675008,15.02519054,.0001206,43.0043,94.7603,286.5800,73.4910,0,U,57305,999,6037,-.14977E-3,-.2225E-4,0
STARLINK-30200,2023-096S,2024-08-14T00:22:00.395040,15.02480610,.0001468,43.0020,94.7908,297.0591,63.0101,0,U,57306,999,6038,-.39623E-3,-.5544E-4,0
STARLINK-30209,2023-096T,2024-08-14T00:06:02.368512,15.02515331,.0000717,42.9986,94.7053,277.7613,82.3147,0,U,57307,999,6038,-.18715E-3,-.2729E-4,0
STARLINK-30194,2023-096U,2024-08-14T00:01:14.850048,15.02512449,.0001184,43.0017,94.6892,295.4798,64.5922,0,U,57308,999,6037,-.33673E-3,-.4746E-4,0
STARLINK-30163,2023-096V,2024-08-14T01:32:08.932992,15.02487019,.000176,43.0016,94.3017,278.3032,81.7611,0,U,57309,999,6054,-.17929E-2,-.24308E-3,0
STARLINK-30184,2023-096W,2024-08-13T21:04:53.563872,15.02506853,.0000902,43.0015,69.6284,252.6396,107.4348,0,U,57310,999,6085,-.14238E-2,-.19369E-3,0
STARLINK-30175,2023-096X,2024-08-13T23:51:38.475648,15.02510418,.0000872,43.0005,94.6349,282.9494,77.1251,0,U,57311,999,6048,-.50561E-3,-.7022E-4,0
STARLINK-6290,2023-099A,2024-08-14T01:20:20.618016,15.02521758,.0001592,43.0040,120.8476,270.9403,89.1257,0,U,57328,999,6071,-.16185E-3,-.2388E-4,0
STARLINK-6138,2023-099B,2024-08-14T01:05:58.200000,15.02496868,.0000966,43.0000,120.7697,295.4792,64.5950,0,U,57329,999,6071,-.88995E-3,-.12192E-3,0
STARLINK-6212,2023-099C,2024-08-13T17:16:56.281440,15.02474797,.000038,43.0005,122.6314,298.7295,61.3509,0,U,57330,999,5992,.13416E-2,.17936E-3,0
STARLINK-6234,2023-099D,2024-08-14T02:49:43.212864,15.02519362,.0001398,43.0020,120.4537,281.7818,78.2868,0,U,57331,999,6046,.22878E-2,.30823E-3,0
STARLINK-5831,2023-099E,2024-08-14T02:46:30.257472,15.02498477,.000076,43.0003,120.4368,275.6151,84.4605,0,U,57332,999,6072,-.62841E-3,-.8673E-4,0
